NORAD_CAT_ID,OBJECT_NAME,OBJECT_TYPE,EPOCH,MEAN_MOTION,ECCENTRICITY,INCLINATION,RA_OF_ASC_NODE,ARG_OF_PERICENTER,MEAN_ANOMALY,BSTAR,MEAN_MOTION_DOT,MEAN_MOTION_DDOT,TLE_LINE0,TLE_LINE1,TLE_LINE2,SEMIMAJOR_AXIS,PERIOD,APOGEE,PERIGEE,DECAYED
56480.0,STARLINK-6214,PAYLOAD,2024-07-03 20:48:56,14.98655335,0.0003328,69.9984,232.1596,269.3577,90.7201,6.955e-05,7.44e-06,0.0,0 STARLINK-6214,1 56480U 23064AJ  24185.86732389  .00000744  00000-0  69550-4 0  9998,2 56480  69.9984 232.1596 0003328 269.3577  90.7201 14.98655335 63796,6949.187,96.086,573.365,568.739,0.0
56480.0,STARLINK-6214,PAYLOAD,2024-07-04 04:49:30,14.98652704,0.0003329,69.9983,231.3176,268.9199,91.1578,9.7501e-05,1.08e-05,0.0,0 STARLINK-6214,1 56480U 23064AJ  24186.20105275  .00001080  00000-0  97501-4 0  9996,2 56480  69.9983 231.3176 0003329 268.9199  91.1578 14.98652704 64202,6949.195,96.086,573.374,568.747,0.0
56480.0,STARLINK-6214,PAYLOAD,2024-07-04 12:50:04,14.98655097,0.0003329,69.9984,230.4754,268.3468,91.731,9.4356e-05,1.042e-05,0.0,0 STARLINK-6214,1 56480U 23064AJ  24186.53477903  .00001042  00000-0  94356-4 0  9995,2 56480  69.9984 230.4754 0003329 268.3468  91.7310 14.98655097 63890,6949.188,96.086,573.366,568.739,0.0
56480.0,STARLINK-6214,PAYLOAD,2024-07-04 20:50:38,14.9865632,0.0003322,69.9985,229.6335,268.3003,91.7775,0.00010163,1.13e-05,0.0,0 STARLINK-6214,1 56480U 23064AJ  24186.86850601  .00001130  00000-0  10163-3 0  9992,2 56480  69.9985 229.6335 0003322 268.3003  91.7775 14.98656320 63945,6949.184,96.086,573.357,568.74,0.0
56480.0,STARLINK-6214,PAYLOAD,2024-07-05 04:51:12,14.98658207,0.0003318,69.9985,228.7916,268.2346,91.8433,9.1062e-05,1.003e-05,0.0,0 STARLINK-6214,1 56480U 23064AJ  24187.20223225  .00001003  00000-0  91062-4 0  9994,2 56480  69.9985 228.7916 0003318 268.2346  91.8433 14.98658207 64358,6949.178,96.086,573.349,568.737,0.0
56480.0,STARLINK-6214,PAYLOAD,2024-07-05 12:51:46,14.98660111,0.0003329,69.9984,227.9498,268.3997,91.6781,0.00010366,1.154e-05,0.0,0 STARLINK-6214,1 56480U 23064AJ  24187.53595789  .00001154  00000-0  10366-3 0  9991,2 56480  69.9984 227.9498 0003329 268.3997  91.6781 14.98660111 64045,6949.172,96.086,573.351,568.724,0.0
56480.0,STARLINK-6214,PAYLOAD,2024-07-06 04:52:55,14.9865267,0.0003307,69.9984,226.2661,268.2989,91.7792,3.0828e-05,2.78e-06,0.0,0 STARLINK-6214,1 56480U 23064AJ  24188.20341899  .00000278  00000-0  30828-4 0  9999,2 56480  69.9984 226.2661 0003307 268.2989  91.7792 14.98652670 64500,6949.195,96.086,573.358,568.762,0.0
56480.0,STARLINK-6214,PAYLOAD,2024-07-06 12:53:29,14.98652036,0.0003322,69.9984,225.4243,268.4348,91.6431,5.0608e-06,-3.2e-07,0.0,0 STARLINK-6214,1 56480U 23064AJ  24188.53714722 -.00000032  00000-0  50608-5 0  9992,2 56480  69.9984 225.4243 0003322 268.4348  91.6431 14.98652036 64195,6949.197,96.086,573.371,568.754,0.0
56480.0,STARLINK-6214,PAYLOAD,2024-07-06 19:17:56,14.9865333,0.0003323,69.9984,224.7508,268.5257,91.5522,1.4702e-05,8.4e-07,0.0,0 STARLINK-6214,1 56480U 23064AJ  24188.80412872  .00000084  00000-0  14702-4 0  9993,2 56480  69.9984 224.7508 0003323 268.5257  91.5522 14.98653330 64235,6949.193,96.086,573.367,568.749,0.0
56480.0,STARLINK-6214,PAYLOAD,2024-07-07 04:54:37,14.98654701,0.0003327,69.9983,223.7406,268.4644,91.6134,5.0373e-06,-3.3e-07,0.0,0 STARLINK-6214,1 56480U 23064AJ  24189.20460127 -.00000033  00000-0  50373-5 0  9994,2 56480  69.9983 223.7406 0003327 268.4644  91.6134 14.98654701 64652,6949.189,96.086,573.366,568.742,0.0
56480.0,STARLINK-6214,PAYLOAD,2024-07-07 09:42:57,14.98655156,0.0003333,69.9983,223.2355,268.5473,91.5304,2.0059e-06,-6.9e-07,0.0,0 STARLINK-6214,1 56480U 23064AJ  24189.40483754 -.00000069  00000-0  20059-5 0  9994,2 56480  69.9983 223.2355 0003333 268.5473  91.5304 14.98655156 64325,6949.188,96.086,573.369,568.736,0.0
56480.0,STARLINK-6214,PAYLOAD,2024-07-08 11:20:47,14.98652147,0.0003351,69.9982,220.5416,269.1893,90.8883,6.8268e-05,7.28e-06,0.0,0 STARLINK-6214,1 56480U 23064AJ  24190.47276751  .00000728  00000-0  68268-4 0  9994,2 56480  69.9982 220.5416 0003351 269.1893  90.8883 14.98652147 64843,6949.197,96.086,573.391,568.733,0.0
56480.0,STARLINK-6214,PAYLOAD,2024-07-08 19:21:21,14.98653348,0.0003371,69.9981,219.6997,269.648,90.4293,6.5199e-05,6.91e-06,0.0,0 STARLINK-6214,1 56480U 23064AJ  24190.80649535  .00000691  00000-0  65199-4 0  9994,2 56480  69.9981 219.6997 0003371 269.6480  90.4293 14.98653348 64535,6949.193,96.086,573.401,568.716,0.0
56480.0,STARLINK-6214,PAYLOAD,2024-07-09 11:22:29,14.98653638,0.0003334,69.9982,218.0163,269.6595,90.4182,4.6457e-05,4.66e-06,0.0,0 STARLINK-6214,1 56480U 23064AJ  24191.47395151  .00000466  00000-0  46457-4 0  9996,2 56480  69.9982 218.0163 0003334 269.6595  90.4182 14.98653638 64999,6949.192,96.086,573.374,568.74,0.0
56480.0,STARLINK-6214,PAYLOAD,2024-07-10 11:24:11,14.98652873,0.0003348,69.9981,215.4906,269.4672,90.6103,2.7656e-05,2.39e-06,0.0,0 STARLINK-6214,1 56480U 23064AJ  24192.47513670  .00000239  00000-0  27656-4 0  9993,2 56480  69.9981 215.4906 0003348 269.4672  90.6103 14.98652873 65146,6949.195,96.086,573.386,568.733,0.0
56480.0,STARLINK-6214,PAYLOAD,2024-07-11 11:25:53,14.98657089,0.0003367,69.9981,212.9647,269.434,90.6433,6.829e-05,7.28e-06,0.0,0 STARLINK-6214,1 56480U 23064AJ  24193.47631623  .00000728  00000-0  68290-4 0  9995,2 56480  69.9981 212.9647 0003367 269.4340  90.6433 14.98657089 64939,6949.182,96.086,573.386,568.707,0.0
56480.0,STARLINK-6214,PAYLOAD,2024-07-12 11:27:36,14.98654462,0.0003343,69.9981,210.4392,269.3011,90.7765,5.9096e-05,6.18e-06,0.0,0 STARLINK-6214,1 56480U 23064AJ  24194.47750189  .00000618  00000-0  59096-4 0  9997,2 56480  69.9981 210.4392 0003343 269.3011  90.7765 14.98654462 65445,6949.19,96.086,573.378,568.732,0.0
56480.0,STARLINK-6214,PAYLOAD,2024-07-12 17:52:03,14.98654905,0.0003334,69.9981,209.7657,269.1612,90.9165,4.7511e-05,4.78e-06,0.0,0 STARLINK-6214,1 56480U 23064AJ  24194.74448412  .00000478  00000-0  47511-4 0  9993,2 56480  69.9981 209.7657 0003334 269.1612  90.9165 14.98654905 65128,6949.188,96.086,573.37,568.736,0.0
56480.0,STARLINK-6214,PAYLOAD,2024-07-13 09:53:11,14.98656069,0.0003348,69.9981,208.0818,269.9595,90.1181,2.4146e-05,1.97e-06,0.0,0 STARLINK-6214,1 56480U 23064AJ  24195.41193896  .00000197  00000-0  24146-4 0  9998,2 56480  69.9981 208.0818 0003348 269.9595  90.1181 14.98656069 65226,6949.185,96.086,573.376,568.723,0.0
56480.0,STARLINK-6214,PAYLOAD,2024-07-13 17:53:45,14.98656057,0.0003342,69.9981,207.2399,269.8578,90.2198,2.5713e-05,2.16e-06,0.0,0 STARLINK-6214,1 56480U 23064AJ  24195.74566661  .00000216  00000-0  25713-4 0  9991,2 56480  69.9981 207.2399 0003342 269.8578  90.2198 14.98656057 65636,6949.185,96.086,573.372,568.727,0.0
56480.0,STARLINK-6214,PAYLOAD,2024-07-14 03:30:27,14.98649006,0.0003309,69.9982,206.2298,269.2715,90.8065,-1.3586e-05,-2.57e-06,0.0,0 STARLINK-6214,1 56480U 23064AJ  24196.14614621 -.00000257  00000-0 -13586-4 0  9998,2 56480  69.9982 206.2298 0003309 269.2715  90.8065 14.98649006 65695,6949.207,96.087,573.371,568.772,0.0
56480.0,STARLINK-6214,PAYLOAD,2024-07-14 09:54:55,14.98640226,0.0003377,69.998,205.5562,269.7772,90.3,-0.00011008,-1.417e-05,0.0,0 STARLINK-6214,1 56480U 23064AJ  24196.41313835 -.00001417  00000-0 -11008-3 0  9996,2 56480  69.9980 205.5562 0003377 269.7772  90.3000 14.98640226 65736,6949.234,96.087,573.445,568.752,0.0
56480.0,STARLINK-6214,PAYLOAD,2024-07-14 17:55:29,14.9864098,0.0003374,69.998,204.7142,269.4688,90.6085,-9.3745e-05,-1.221e-05,0.0,0 STARLINK-6214,1 56480U 23064AJ  24196.74686801 -.00001221  00000-0 -93745-4 0  9990,2 56480  69.9980 204.7142 0003374 269.4688  90.6085 14.98640980 65420,6949.231,96.087,573.441,568.752,0.0
56480.0,STARLINK-6214,PAYLOAD,2024-07-15 09:56:37,14.98641482,0.0003263,69.9984,203.0309,267.7418,92.3368,-5.5574e-05,-7.62e-06,0.0,0 STARLINK-6214,1 56480U 23064AJ  24197.41432808 -.00000762  00000-0 -55574-4 0  9998,2 56480  69.9984 203.0309 0003263 267.7418  92.3368 14.98641482 65881,6949.23,96.087,573.362,568.827,0.0
56480.0,STARLINK-6214,PAYLOAD,2024-07-15 17:57:11,14.98647427,0.0003268,69.9984,202.189,267.4128,92.6657,6.6195e-06,-1.4e-07,0.0,0 STARLINK-6214,1 56480U 23064AJ  24197.74805320 -.00000014  00000-0  66195-5 0  9998,2 56480  69.9984 202.1890 0003268 267.4128  92.6657 14.98647427 65931,6949.211,96.087,573.347,568.805,0.0
56480.0,STARLINK-6214,PAYLOAD,2024-07-16 09:58:19,14.98647343,0.0003293,69.9981,200.5047,266.4883,93.5899,0.00021939,2.547e-05,0.0,0 STARLINK-6214,1 56480U 23064AJ  24198.41550693  .00002547  00000-0  21939-3 0  9990,2 56480  69.9981 200.5047 0003293 266.4883  93.5899 14.98647343 65675,6949.212,96.087,573.365,568.788,0.0
56480.0,STARLINK-6214,PAYLOAD,2024-07-17 05:11:41,14.98655292,0.0003319,69.9981,198.4844,266.2605,93.8175,0.00023213,2.701e-05,0.0,0 STARLINK-6214,1 56480U 23064AJ  24199.21645109  .00002701  00000-0  23213-3 0  9995,2 56480  69.9981 198.4844 0003319 266.2605  93.8175 14.98655292 66150,6949.187,96.086,573.359,568.746,0.0
56480.0,STARLINK-6214,PAYLOAD,2024-07-17 10:00:01,14.98659861,0.0003291,69.9981,197.9791,265.8416,94.2367,0.00025879,3.022e-05,0.0,0 STARLINK-6214,1 56480U 23064AJ  24199.41668502  .00003022  00000-0  25879-3 0  9996,2 56480  69.9981 197.9791 0003291 265.8416  94.2367 14.98659861 65826,6949.173,96.086,573.325,568.751,0.0
56480.0,STARLINK-6214,PAYLOAD,2024-07-18 05:13:22,14.9867038,0.0003259,69.9983,195.9585,265.4912,94.5875,0.00019282,2.228e-05,0.0,0 STARLINK-6214,1 56480U 23064AJ  24200.21762445  .00002228  00000-0  19282-3 0  9996,2 56480  69.9983 195.9585 0003259 265.4912  94.5875 14.98670380 66308,6949.14,96.085,573.27,568.741,0.0
56480.0,STARLINK-6214,PAYLOAD,2024-07-18 10:01:42,14.98672729,0.0003261,69.9983,195.4534,265.4656,94.6131,0.00020961,2.431e-05,0.0,0 STARLINK-6214,1 56480U 23064AJ  24200.41785816  .00002431  00000-0  20961-3 0  9997,2 56480  69.9983 195.4534 0003261 265.4656  94.6131 14.98672729 65972,6949.133,96.085,573.264,568.732,0.0
